CCSDS_OMM_VERS = 2.0
CREATION_DATE  = 
ORIGINATOR     = 

OBJECT_NAME    = UNKNOWN
OBJECT_ID      = 
CENTER_NAME    = EARTH
REF_FRAME      = TEME
TIME_SYSTEM    = UTC
MEAN_ELEMENT_THEORY = SGP/SGP4

EPOCH          = 2025-11-16T10:06:57.477312
MEAN_MOTION    = 9.24153033
ECCENTRICITY   = .2838741
INCLINATION    = 62.4801
RA_OF_ASC_NODE = 37.8059
ARG_OF_PERICENTER = 98.2917
MEAN_ANOMALY   = 294.5532

EPHEMERIS_TYPE = 0
CLASSIFICATION_TYPE = U
NORAD_CAT_ID   = 89251
ELEMENT_SET_NO = 999
REV_AT_EPOCH   = 37075
BSTAR          = .7034E-2
MEAN_MOTION_DOT = .12199E-3
MEAN_MOTION_DDOT = 0

CCSDS_OMM_VERS = 2.0
CREATION_DATE  = 
ORIGINATOR     = 

OBJECT_NAME    = UNKNOWN
OBJECT_ID      = 
CENTER_NAME    = EARTH
REF_FRAME      = TEME
TIME_SYSTEM    = UTC
MEAN_ELEMENT_THEORY = SGP/SGP4

EPOCH          = 2025-11-16T06:25:34.655808
MEAN_MOTION    = 14.43041138
ECCENTRICITY   = .0011711
INCLINATION    = 98.1540
RA_OF_ASC_NODE = 315.8218
ARG_OF_PERICENTER = 237.3570
MEAN_ANOMALY   = 122.6491

EPHEMERIS_TYPE = 0
CLASSIFICATION_TYPE = U
NORAD_CAT_ID   = 89261
ELEMENT_SET_NO = 999
REV_AT_EPOCH   = 52999
BSTAR          = .59352E-3
MEAN_MOTION_DOT = .1949E-4
MEAN_MOTION_DDOT = 0

CCSDS_OMM_VERS = 2.0
CREATION_DATE  = 
ORIGINATOR     = 

OBJECT_NAME    = UNKNOWN
OBJECT_ID      = 
CENTER_NAME    = EARTH
REF_FRAME      = TEME
TIME_SYSTEM    = UTC
MEAN_ELEMENT_THEORY = SGP/SGP4

EPOCH          = 2025-11-14T11:52:49.043712
MEAN_MOTION    = 9.02576463
ECCENTRICITY   = .2844236
INCLINATION    = 84.3758
RA_OF_ASC_NODE = 111.4581
ARG_OF_PERICENTER = 22.1467
MEAN_ANOMALY   = 23.7467

EPHEMERIS_TYPE = 0
CLASSIFICATION_TYPE = U
NORAD_CAT_ID   = 89304
ELEMENT_SET_NO = 999
REV_AT_EPOCH   = 43585
BSTAR          = .20695E-1
MEAN_MOTION_DOT = .15809E-3
MEAN_MOTION_DDOT = 0

CCSDS_OMM_VERS = 2.0
CREATION_DATE  = 
ORIGINATOR     = 

OBJECT_NAME    = UNKNOWN
OBJECT_ID      = 
CENTER_NAME    = EARTH
REF_FRAME      = TEME
TIME_SYSTEM    = UTC
MEAN_ELEMENT_THEORY = SGP/SGP4

EPOCH          = 2025-11-13T14:01:16.132800
MEAN_MOTION    = 12.96229604
ECCENTRICITY   = .0028328
INCLINATION    = 90.2471
RA_OF_ASC_NODE = 6.7007
ARG_OF_PERICENTER = 345.7438
MEAN_ANOMALY   = 14.2880

EPHEMERIS_TYPE = 0
CLASSIFICATION_TYPE = U
NORAD_CAT_ID   = 89349
ELEMENT_SET_NO = 999
REV_AT_EPOCH   = 47497
BSTAR          = .20897E-2
MEAN_MOTION_DOT = .604E-5
MEAN_MOTION_DDOT = 0

CCSDS_OMM_VERS = 2.0
CREATION_DATE  = 
ORIGINATOR     = 

OBJECT_NAME    = UNKNOWN
OBJECT_ID      = 
CENTER_NAME    = EARTH
REF_FRAME      = TEME
TIME_SYSTEM    = UTC
MEAN_ELEMENT_THEORY = SGP/SGP4

EPOCH          = 2025-11-16T11:57:51.414336
MEAN_MOTION    = 13.62427839
ECCENTRICITY   = .0044918
INCLINATION    = 100.4810
RA_OF_ASC_NODE = 333.8215
ARG_OF_PERICENTER = 192.8978
MEAN_ANOMALY   = 167.1014

EPHEMERIS_TYPE = 0
CLASSIFICATION_TYPE = U
NORAD_CAT_ID   = 89379
ELEMENT_SET_NO = 999
REV_AT_EPOCH   = 57720
BSTAR          = .84357E-2
MEAN_MOTION_DOT = .6545E-4
MEAN_MOTION_DDOT = 0

CCSDS_OMM_VERS = 2.0
CREATION_DATE  = 
ORIGINATOR     = 

OBJECT_NAME    = UNKNOWN
OBJECT_ID      = 
CENTER_NAME    = EARTH
REF_FRAME      = TEME
TIME_SYSTEM    = UTC
MEAN_ELEMENT_THEORY = SGP/SGP4

EPOCH          = 2025-11-13T08:39:33.867360
MEAN_MOTION    = 12.01508003
ECCENTRICITY   = .0220207
INCLINATION    = 102.3610
RA_OF_ASC_NODE = 287.2462
ARG_OF_PERICENTER = 174.5270
MEAN_ANOMALY   = 350.2300

EPHEMERIS_TYPE = 0
CLASSIFICATION_TYPE = U
NORAD_CAT_ID   = 89395
ELEMENT_SET_NO = 999
REV_AT_EPOCH   = 52121
BSTAR          = .44311E-2
MEAN_MOTION_DOT = .35E-5
MEAN_MOTION_DDOT = 0

CCSDS_OMM_VERS = 2.0
CREATION_DATE  = 
ORIGINATOR     = 

OBJECT_NAME    = UNKNOWN
OBJECT_ID      = 
CENTER_NAME    = EARTH
REF_FRAME      = TEME
TIME_SYSTEM    = UTC
MEAN_ELEMENT_THEORY = SGP/SGP4

EPOCH          = 2025-11-13T03:03:17.100864
MEAN_MOTION    = 12.98710749
ECCENTRICITY   = .0025575
INCLINATION    = 90.2498
RA_OF_ASC_NODE = 5.1365
ARG_OF_PERICENTER = 293.6295
MEAN_ANOMALY   = 93.0522

EPHEMERIS_TYPE = 0
CLASSIFICATION_TYPE = U
NORAD_CAT_ID   = 89403
ELEMENT_SET_NO = 999
REV_AT_EPOCH   = 47398
BSTAR          = .31952E-2
MEAN_MOTION_DOT = .952E-5
MEAN_MOTION_DDOT = 0

CCSDS_OMM_VERS = 2.0
CREATION_DATE  = 
ORIGINATOR     = 

OBJECT_NAME    = UNKNOWN
OBJECT_ID      = 
CENTER_NAME    = EARTH
REF_FRAME      = TEME
TIME_SYSTEM    = UTC
MEAN_ELEMENT_THEORY = SGP/SGP4

EPOCH          = 2025-11-15T12:22:59.570400
MEAN_MOTION    = 9.12254512
ECCENTRICITY   = .2857415
INCLINATION    = 84.1230
RA_OF_ASC_NODE = 162.4918
ARG_OF_PERICENTER = 62.4901
MEAN_ANOMALY   = 323.7030

EPHEMERIS_TYPE = 0
CLASSIFICATION_TYPE = U
NORAD_CAT_ID   = 89484
ELEMENT_SET_NO = 999
REV_AT_EPOCH   = 35295
BSTAR          = .42693E-1
MEAN_MOTION_DOT = .52066E-3
MEAN_MOTION_DDOT = 0

CCSDS_OMM_VERS = 2.0
CREATION_DATE  = 
ORIGINATOR     = 

OBJECT_NAME    = UNKNOWN
OBJECT_ID      = 
CENTER_NAME    = EARTH
REF_FRAME      = TEME
TIME_SYSTEM    = UTC
MEAN_ELEMENT_THEORY = SGP/SGP4

EPOCH          = 2025-11-16T10:35:34.761984
MEAN_MOTION    = 14.16070694
ECCENTRICITY   = .0082973
INCLINATION    = 99.0291
RA_OF_ASC_NODE = 28.9532
ARG_OF_PERICENTER = 115.3528
MEAN_ANOMALY   = 245.6267

EPHEMERIS_TYPE = 0
CLASSIFICATION_TYPE = U
NORAD_CAT_ID   = 89493
ELEMENT_SET_NO = 999
REV_AT_EPOCH   = 46022
BSTAR          = .21918E-2
MEAN_MOTION_DOT = .4433E-4
MEAN_MOTION_DDOT = 0

CCSDS_OMM_VERS = 2.0
CREATION_DATE  = 
ORIGINATOR     = 

OBJECT_NAME    = UNKNOWN
OBJECT_ID      = 
CENTER_NAME    = EARTH
REF_FRAME      = TEME
TIME_SYSTEM    = UTC
MEAN_ELEMENT_THEORY = SGP/SGP4

EPOCH          = 2025-11-15T15:31:01.802496
MEAN_MOTION    = 14.15993865
ECCENTRICITY   = .0083616
INCLINATION    = 99.0291
RA_OF_ASC_NODE = 28.0363
ARG_OF_PERICENTER = 117.6736
MEAN_ANOMALY   = 243.2954

EPHEMERIS_TYPE = 0
CLASSIFICATION_TYPE = U
NORAD_CAT_ID   = 89494
ELEMENT_SET_NO = 999
REV_AT_EPOCH   = 45996
BSTAR          = .19563E-2
MEAN_MOTION_DOT = .3948E-4
MEAN_MOTION_DDOT = 0

